[{"OBJECT_NAME":"STARLINK-37140","OBJECT_ID":"2026-057T","EPOCH":"2026-04-08T06:00:00.999648","MEAN_MOTION":15.80815056,"ECCENTRICITY":0.00014676,"INCLINATION":97.2839,"RA_OF_ASC_NODE":222.1286,"ARG_OF_PERICENTER":81.2366,"MEAN_ANOMALY":356.986,"EPHEMERIS_TYPE":0,"CLASSIFICATION_TYPE":"U","NORAD_CAT_ID":68311,"ELEMENT_SET_NO":999,"REV_AT_EPOCH":417,"BSTAR":0.00031698602,"MEAN_MOTION_DOT":0.00061,"MEAN_MOTION_DDOT":0},{"OBJECT_NAME":"STARLINK-36854","OBJECT_ID":"2026-057U","EPOCH":"2026-04-08T06:00:00.999648","MEAN_MOTION":15.80817348,"ECCENTRICITY":0.00015341,"INCLINATION":97.2844,"RA_OF_ASC_NODE":222.1318,"ARG_OF_PERICENTER":89.4936,"MEAN_ANOMALY":357.2738,"EPHEMERIS_TYPE":0,"CLASSIFICATION_TYPE":"U","NORAD_CAT_ID":68312,"ELEMENT_SET_NO":999,"REV_AT_EPOCH":396,"BSTAR":0.00048686562,"MEAN_MOTION_DOT":0.00094135,"MEAN_MOTION_DDOT":0},{"OBJECT_NAME":"STARLINK-36815","OBJECT_ID":"2026-057V","EPOCH":"2026-04-08T06:00:00.999648","MEAN_MOTION":15.80802074,"ECCENTRICITY":0.00014483,"INCLINATION":97.2842,"RA_OF_ASC_NODE":222.1345,"ARG_OF_PERICENTER":77.1889,"MEAN_ANOMALY":13.8597,"EPHEMERIS_TYPE":0,"CLASSIFICATION_TYPE":"U","NORAD_CAT_ID":68313,"ELEMENT_SET_NO":999,"REV_AT_EPOCH":396,"BSTAR":0.00067228236,"MEAN_MOTION_DOT":0.00130493,"MEAN_MOTION_DDOT":0},{"OBJECT_NAME":"STARLINK-37155","OBJECT_ID":"2026-057W","EPOCH":"2026-04-08T06:00:00.999648","MEAN_MOTION":15.80829602,"ECCENTRICITY":0.00018951,"INCLINATION":97.2841,"RA_OF_ASC_NODE":222.1369,"ARG_OF_PERICENTER":69.9881,"MEAN_ANOMALY":29.5984,"EPHEMERIS_TYPE":0,"CLASSIFICATION_TYPE":"U","NORAD_CAT_ID":68314,"ELEMENT_SET_NO":999,"REV_AT_EPOCH":401,"BSTAR":0.00028175288,"MEAN_MOTION_DOT":0.000542,"MEAN_MOTION_DDOT":0},{"OBJECT_NAME":"STARLINK-37150","OBJECT_ID":"2026-057X","EPOCH":"2026-04-08T06:00:00.999648","MEAN_MOTION":15.80827301,"ECCENTRICITY":0.00015651,"INCLINATION":97.2841,"RA_OF_ASC_NODE":222.1354,"ARG_OF_PERICENTER":68.289,"MEAN_ANOMALY":27.0264,"EPHEMERIS_TYPE":0,"CLASSIFICATION_TYPE":"U","NORAD_CAT_ID":68315,"ELEMENT_SET_NO":999,"REV_AT_EPOCH":401,"BSTAR":0.00032211381,"MEAN_MOTION_DOT":0.00062031,"MEAN_MOTION_DDOT":0},{"OBJECT_NAME":"STARLINK-37154","OBJECT_ID":"2026-057Y","EPOCH":"2026-04-08T06:00:00.999648","MEAN_MOTION":15.80817604,"ECCENTRICITY":0.00015992,"INCLINATION":97.2842,"RA_OF_ASC_NODE":222.1393,"ARG_OF_PERICENTER":60.7749,"MEAN_ANOMALY":47.3625,"EPHEMERIS_TYPE":0,"CLASSIFICATION_TYPE":"U","NORAD_CAT_ID":68316,"ELEMENT_SET_NO":999,"REV_AT_EPOCH":391,"BSTAR":0.00031972594,"MEAN_MOTION_DOT":0.0006154,"MEAN_MOTION_DDOT":0},{"OBJECT_NAME":"STARLINK-37139","OBJECT_ID":"2026-057Z","EPOCH":"2026-04-08T06:00:00.999648","MEAN_MOTION":15.80817867,"ECCENTRICITY":0.00014338,"INCLINATION":97.2842,"RA_OF_ASC_NODE":222.1379,"ARG_OF_PERICENTER":65.536,"MEAN_ANOMALY":38.3349,"EPHEMERIS_TYPE":0,"CLASSIFICATION_TYPE":"U","NORAD_CAT_ID":68317,"ELEMENT_SET_NO":999,"REV_AT_EPOCH":376,"BSTAR":0.000341037,"MEAN_MOTION_DOT":0.00065682,"MEAN_MOTION_DDOT":0},{"OBJECT_NAME":"STARLINK-37113","OBJECT_ID":"2026-057AA","EPOCH":"2026-04-08T06:00:00.999648","MEAN_MOTION":15.80779757,"ECCENTRICITY":0.00014247,"INCLINATION":97.2844,"RA_OF_ASC_NODE":222.1422,"ARG_OF_PERICENTER":109.2264,"MEAN_ANOMALY":3.1967,"EPHEMERIS_TYPE":0,"CLASSIFICATION_TYPE":"U","NORAD_CAT_ID":68318,"ELEMENT_SET_NO":999,"REV_AT_EPOCH":401,"BSTAR":0.00070264844,"MEAN_MOTION_DOT":0.00136346,"MEAN_MOTION_DDOT":0},{"OBJECT_NAME":"PROGRESS-MS 33","OBJECT_ID":"2026-058A","EPOCH":"2026-04-08T00:07:29.534880","MEAN_MOTION":15.48824658,"ECCENTRICITY":0.00063328,"INCLINATION":51.6328,"RA_OF_ASC_NODE":287.4161,"ARG_OF_PERICENTER":285.7518,"MEAN_ANOMALY":74.2772,"EPHEMERIS_TYPE":0,"CLASSIFICATION_TYPE":"U","NORAD_CAT_ID":68319,"ELEMENT_SET_NO":999,"REV_AT_EPOCH":224,"BSTAR":0.00014015075,"MEAN_MOTION_DOT":7.234e-5,"MEAN_MOTION_DDOT":0},{"OBJECT_NAME":"STARLINK-36987","OBJECT_ID":"2026-059A","EPOCH":"2026-04-08T06:42:39.904128","MEAN_MOTION":15.81008773,"ECCENTRICITY":0.00010772,"INCLINATION":53.1581,"RA_OF_ASC_NODE":214.5983,"ARG_OF_PERICENTER":65.1357,"MEAN_ANOMALY":294.9778,"EPHEMERIS_TYPE":0,"CLASSIFICATION_TYPE":"U","NORAD_CAT_ID":68321,"ELEMENT_SET_NO":999,"REV_AT_EPOCH":265,"BSTAR":0.0018489148,"MEAN_MOTION_DOT":0.00383282,"MEAN_MOTION_DDOT":0},{"OBJECT_NAME":"STARLINK-37088","OBJECT_ID":"2026-059B","EPOCH":"2026-04-08T06:40:30.291168","MEAN_MOTION":15.80929543,"ECCENTRICITY":0.00016887,"INCLINATION":53.1579,"RA_OF_ASC_NODE":214.5882,"ARG_OF_PERICENTER":18.0401,"MEAN_ANOMALY":342.0682,"EPHEMERIS_TYPE":0,"CLASSIFICATION_TYPE":"U","NORAD_CAT_ID":68322,"ELEMENT_SET_NO":999,"REV_AT_EPOCH":265,"BSTAR":0.0012758752,"MEAN_MOTION_DOT":0.00259507,"MEAN_MOTION_DDOT":0},{"OBJECT_NAME":"STARLINK-36983","OBJECT_ID":"2026-059C","EPOCH":"2026-04-08T06:41:36.214368","MEAN_MOTION":15.80889591,"ECCENTRICITY":0.00013362,"INCLINATION":53.1582,"RA_OF_ASC_NODE":214.5934,"ARG_OF_PERICENTER":35.0642,"MEAN_ANOMALY":325.0469,"EPHEMERIS_TYPE":0,"CLASSIFICATION_TYPE":"U","NORAD_CAT_ID":68323,"ELEMENT_SET_NO":999,"REV_AT_EPOCH":265,"BSTAR":0.0014255742,"MEAN_MOTION_DOT":0.00290558,"MEAN_MOTION_DDOT":0},{"OBJECT_NAME":"STARLINK-37164","OBJECT_ID":"2026-059D","EPOCH":"2026-04-07T20:02:09.778560","MEAN_MOTION":15.81000545,"ECCENTRICITY":6.924e-5,"INCLINATION":53.1585,"RA_OF_ASC_NODE":216.8007,"ARG_OF_PERICENTER":75.091,"MEAN_ANOMALY":285.0189,"EPHEMERIS_TYPE":0,"CLASSIFICATION_TYPE":"U","NORAD_CAT_ID":68324,"ELEMENT_SET_NO":999,"REV_AT_EPOCH":371,"BSTAR":0.0015699661,"MEAN_MOTION_DOT":0.00322935,"MEAN_MOTION_DDOT":0},{"OBJECT_NAME":"STARLINK-36309","OBJECT_ID":"2026-059E","EPOCH":"2026-04-08T06:38:20.551200","MEAN_MOTION":15.8097671,"ECCENTRICITY":0.00013263,"INCLINATION":53.1577,"RA_OF_ASC_NODE":214.5789,"ARG_OF_PERICENTER":62.2788,"MEAN_ANOMALY":297.8369,"EPHEMERIS_TYPE":0,"CLASSIFICATION_TYPE":"U","NORAD_CAT_ID":68325,"ELEMENT_SET_NO":999,"REV_AT_EPOCH":265,"BSTAR":0.0014598432,"MEAN_MOTION_DOT":0.00299055,"MEAN_MOTION_DDOT":0},{"OBJECT_NAME":"STARLINK-37206","OBJECT_ID":"2026-059F","EPOCH":"2026-04-08T06:37:15.563712","MEAN_MOTION":15.80974868,"ECCENTRICITY":0.00011678,"INCLINATION":53.158,"RA_OF_ASC_NODE":214.5734,"ARG_OF_PERICENTER":38.3109,"MEAN_ANOMALY":321.7996,"EPHEMERIS_TYPE":0,"CLASSIFICATION_TYPE":"U","NORAD_CAT_ID":68326,"ELEMENT_SET_NO":999,"REV_AT_EPOCH":265,"BSTAR":0.0015323922,"MEAN_MOTION_DOT":0.00314496,"MEAN_MOTION_DDOT":0},{"OBJECT_NAME":"STARLINK-37199","OBJECT_ID":"2026-059G","EPOCH":"2026-04-08T06:36:10.756800","MEAN_MOTION":15.80978724,"ECCENTRICITY":0.00012008,"INCLINATION":53.1578,"RA_OF_ASC_NODE":214.5678,"ARG_OF_PERICENTER":40.1999,"MEAN_ANOMALY":319.9112,"EPHEMERIS_TYPE":0,"CLASSIFICATION_TYPE":"U","NORAD_CAT_ID":68327,"ELEMENT_SET_NO":999,"REV_AT_EPOCH":265,"BSTAR":0.0015926715,"MEAN_MOTION_DOT":0.0032745,"MEAN_MOTION_DDOT":0},{"OBJECT_NAME":"STARLINK-36245","OBJECT_ID":"2026-059H","EPOCH":"2026-04-08T06:34:01.197408","MEAN_MOTION":15.80972126,"ECCENTRICITY":0.00010686,"INCLINATION":53.1579,"RA_OF_ASC_NODE":214.5586,"ARG_OF_PERICENTER":60.994,"MEAN_ANOMALY":299.119,"EPHEMERIS_TYPE":0,"CLASSIFICATION_TYPE":"U","NORAD_CAT_ID":68328,"ELEMENT_SET_NO":999,"REV_AT_EPOCH":265,"BSTAR":0.0015255751,"MEAN_MOTION_DOT":0.00313,"MEAN_MOTION_DDOT":0},{"OBJECT_NAME":"STARLINK-37204","OBJECT_ID":"2026-059J","EPOCH":"2026-04-08T06:35:06.322272","MEAN_MOTION":15.80926379,"ECCENTRICITY":0.0001327,"INCLINATION":53.1574,"RA_OF_ASC_NODE":214.5634,"ARG_OF_PERICENTER":57.9543,"MEAN_ANOMALY":302.1608,"EPHEMERIS_TYPE":0,"CLASSIFICATION_TYPE":"U","NORAD_CAT_ID":68329,"ELEMENT_SET_NO":999,"REV_AT_EPOCH":265,"BSTAR":0.0012473532,"MEAN_MOTION_DOT":0.00253473,"MEAN_MOTION_DDOT":0},{"OBJECT_NAME":"STARLINK-37001","OBJECT_ID":"2026-059K","EPOCH":"2026-04-08T06:32:57.149952","MEAN_MOTION":15.80875311,"ECCENTRICITY":0.00011182,"INCLINATION":53.1576,"RA_OF_ASC_NODE":214.5531,"ARG_OF_PERICENTER":81.3509,"MEAN_ANOMALY":278.764,"EPHEMERIS_TYPE":0,"CLASSIFICATION_TYPE":"U","NORAD_CAT_ID":68330,"ELEMENT_SET_NO":999,"REV_AT_EPOCH":265,"BSTAR":0.00067730124,"MEAN_MOTION_DOT":0.00135103,"MEAN_MOTION_DDOT":0},{"OBJECT_NAME":"STARLINK-36932","OBJECT_ID":"2026-059L","EPOCH":"2026-04-08T06:31:51.866112","MEAN_MOTION":15.80909965,"ECCENTRICITY":0.00014564,"INCLINATION":53.1579,"RA_OF_ASC_NODE":214.5478,"ARG_OF_PERICENTER":71.6716,"MEAN_ANOMALY":288.4465,"EPHEMERIS_TYPE":0,"CLASSIFICATION_TYPE":"U","NORAD_CAT_ID":68331,"ELEMENT_SET_NO":999,"REV_AT_EPOCH":265,"BSTAR":0.0010006632,"MEAN_MOTION_DOT":0.00201827,"MEAN_MOTION_DDOT":0},{"OBJECT_NAME":"STARLINK-37205","OBJECT_ID":"2026-059M","EPOCH":"2026-04-08T03:28:14.388672","MEAN_MOTION":15.82751254,"ECCENTRICITY":0.00020074,"INCLINATION":53.158,"RA_OF_ASC_NODE":215.1746,"ARG_OF_PERICENTER":44.583,"MEAN_ANOMALY":315.5354,"EPHEMERIS_TYPE":0,"CLASSIFICATION_TYPE":"U","NORAD_CAT_ID":68332,"ELEMENT_SET_NO":999,"REV_AT_EPOCH":263,"BSTAR":0.0060575308,"MEAN_MOTION_DOT":0.01476387,"MEAN_MOTION_DDOT":0},{"OBJECT_NAME":"STARLINK-37180","OBJECT_ID":"2026-059N","EPOCH":"2026-04-07T16:50:24.328608","MEAN_MOTION":15.80771877,"ECCENTRICITY":0.00021262,"INCLINATION":53.1582,"RA_OF_ASC_NODE":217.3896,"ARG_OF_PERICENTER":40.0468,"MEAN_ANOMALY":320.0711,"EPHEMERIS_TYPE":0,"CLASSIFICATION_TYPE":"U","NORAD_CAT_ID":68333,"ELEMENT_SET_NO":999,"REV_AT_EPOCH":256,"BSTAR":-0.00020834751,"MEAN_MOTION_DOT":-0.00041439,"MEAN_MOTION_DDOT":0},{"OBJECT_NAME":"STARLINK-37191","OBJECT_ID":"2026-059P","EPOCH":"2026-04-08T06:28:37.545600","MEAN_MOTION":15.80911935,"ECCENTRICITY":0.0001296,"INCLINATION":53.1579,"RA_OF_ASC_NODE":214.5328,"ARG_OF_PERICENTER":98.04,"MEAN_ANOMALY":262.077,"EPHEMERIS_TYPE":0,"CLASSIFICATION_TYPE":"U","NORAD_CAT_ID":68334,"ELEMENT_SET_NO":999,"REV_AT_EPOCH":265,"BSTAR":0.0011471883,"MEAN_MOTION_DOT":0.00232331,"MEAN_MOTION_DDOT":0}]
